1 90000           19337.16666667 -.00000187  00000-0 -21639-3 0 00001
2 90000 099.5905 241.4146 0010029 271.3412 252.8406 13.69116711000016
1 90001           19337.16666667 -.00000256  00000-0 -29600-3 0 00005
2 90001 099.5905 241.4146 0010022 271.4392 282.7426 13.69116765000011
1 90002           19337.16666667  .00000109  00000-0  12605-3 0 00008
2 90002 099.5905 241.4146 0010004 271.5101 312.6719 13.69116401000016
1 90003           19337.16666667  .00000602  00000-0  69600-3 0 00004
2 90003 099.5905 241.4146 0009980 271.5044 342.6779 13.69115951000012
1 90004           19337.16666667  .00000724  00000-0  83775-3 0 00009
2 90004 099.5905 241.4146 0009963 271.4263 012.7559 13.69115898000017
1 90005           19337.16666667  .00000286  00000-0  33140-3 0 00004
2 90005 099.5905 241.4146 0009957 271.3270 042.8549 13.69116389000017
1 90006           19337.16666667 -.00000386  00000-0 -44622-3 0 00005
2 90006 099.5905 241.4146 0009958 271.2300 072.9514 13.69117058000012
1 90007           19337.16666667 -.00000747  00000-0 -86398-3 0 00003
2 90007 099.5905 241.4146 0009965 271.1315 103.0498 13.69117362000011
1 90008           19337.16666667 -.00000543  00000-0 -62775-3 0 00001
2 90008 099.5905 241.4146 0009984 271.0614 133.1201 13.69117089000016
1 90009           19337.16666667 -.00000036  00000-0 -41806-4 0 00002
2 90009 099.5905 241.4146 0010007 271.0687 163.1133 13.69116544000017
1 90010           19337.16666667  .00000271  00000-0  31348-3 0 00002
2 90010 099.5905 241.4146 0010024 271.1471 193.0350 13.69116239000014
1 90011           19337.16666667  .00000139  00000-0  16133-3 0 00001
2 90011 099.5905 241.4146 0010030 271.2455 222.9365 13.69116385000015
